FENGYUN 1C DEB          
1 31012U 99025BDE 26061.95840455  .00000525  00000+0  22212-3 0  9990
2 31012  98.9074 326.6598 0082736  19.4534  40.2886 14.27947293988929
FENGYUN 1C DEB          
1 31014U 99025BDG 26062.16162128  .00000462  00000+0  34092-3 0  9999
2 31014  98.8797  40.1612 0087926 332.3932  86.7398 13.98525234969603
FENGYUN 1C DEB          
1 31016U 99025BDJ 26061.88949284  .00000898  00000+0  33561-3 0  9998
2 31016  98.4337  80.3242 0113565  37.7968  80.9073 14.30630258986166
FENGYUN 1C DEB          
1 31017U 99025BDK 26061.42787809  .00000709  00000+0  40879-3 0  9993
2 31017  98.6898  49.6643 0113744 123.6262  29.7683 14.08940869974189
FENGYUN 1C DEB          
1 31018U 99025BDL 26061.73298077  .00003439  00000+0  16903-2 0  9995
2 31018  99.0180 154.6833 0057503 255.0589 104.4214 14.17488261971887
FENGYUN 1C DEB          
1 31019U 99025BDM 26061.76614661  .00001351  00000+0  37076-2 0  9995
2 31019  98.7128 237.4658 1111646 129.2737 351.6377 11.83202808561273
FENGYUN 1C DEB          
1 31021U 99025BDP 26054.11414102  .00005426  00000+0  43940-3 0  9992
2 31021  98.3475 172.0690 0264659  11.3731 349.3300 14.76631485745001
FENGYUN 1C DEB          
1 31022U 99025BDQ 26061.46102516  .00000526  00000+0  43929-3 0  9995
2 31022  99.5108 311.9860 0109076 269.1865  89.6794 13.90552415631165
FENGYUN 1C DEB          
1 31023U 99025BDR 26055.19175155  .00000295  00000+0  19737-3 0  9991
2 31023  98.8230  43.7893 0082836  15.9908 344.3847 14.06735466705348
FENGYUN 1C DEB          
1 31024U 99025BDS 26060.55464719  .00000640  00000+0  30843-3 0  9990
2 31024  99.0420 340.7282 0073333 259.9970  99.2924 14.21000190978234
FENGYUN 1C DEB          
1 31025U 99025BDT 26059.19216811  .00000870  00000+0  36365-3 0  9997
2 31025  98.5859  52.1896 0172689 147.7218 213.4668 14.20808746654657
FENGYUN 1C DEB          
1 31026U 99025BDU 26061.60201615  .00000241  00000+0  23930-3 0  9999
2 31026  98.7866 356.9043 0134191 327.3114 212.8568 13.83443410691300
FENGYUN 1C DEB          
1 31028U 99025BDW 26060.01385181  .00000385  00000+0  31221-3 0  9997
2 31028  98.7117 351.8082 0166174  79.7122 282.2727 13.89131427630906
FENGYUN 1C DEB          
1 31029U 99025BDX 26062.19080671  .00000860  00000+0  30772-3 0  9993
2 31029  98.8544 326.0889 0088318 196.9793 318.1788 14.34525381989494
FENGYUN 1C DEB          
1 31030U 99025BDY 26060.70897782  .00002030  00000+0  89906-3 0  9993
2 31030  98.7559 127.3502 0027824 210.5152 276.5837 14.24040682978284
FENGYUN 1C DEB          
1 31031U 99025BDZ 26061.76429019  .00001062  00000+0  50804-3 0  9994
2 31031  99.0738 346.0106 0027921 321.8201  94.6913 14.21162460979918
