[{"OBJECT_NAME":"FENGYUN 1C DEB","OBJECT_ID":"1999-025BDE","EPOCH":"2026-03-02T23:00:06.153120","MEAN_MOTION":14.27947293,"ECCENTRICITY":0.0082736,"INCLINATION":98.9074,"RA_OF_ASC_NODE":326.6598,"ARG_OF_PERICENTER":19.4534,"MEAN_ANOMALY":40.2886,"EPHEMERIS_TYPE":0,"CLASSIFICATION_TYPE":"U","NORAD_CAT_ID":31012,"ELEMENT_SET_NO":999,"REV_AT_EPOCH":98892,"BSTAR":0.00022212,"MEAN_MOTION_DOT":5.25e-6,"MEAN_MOTION_DDOT":0},{"OBJECT_NAME":"FENGYUN 1C DEB","OBJECT_ID":"1999-025BDG","EPOCH":"2026-03-03T03:52:44.078592","MEAN_MOTION":13.98525234,"ECCENTRICITY":0.0087926,"INCLINATION":98.8797,"RA_OF_ASC_NODE":40.1612,"ARG_OF_PERICENTER":332.3932,"MEAN_ANOMALY":86.7398,"EPHEMERIS_TYPE":0,"CLASSIFICATION_TYPE":"U","NORAD_CAT_ID":31014,"ELEMENT_SET_NO":999,"REV_AT_EPOCH":96960,"BSTAR":0.00034092,"MEAN_MOTION_DOT":4.62e-6,"MEAN_MOTION_DDOT":0},{"OBJECT_NAME":"FENGYUN 1C DEB","OBJECT_ID":"1999-025BDJ","EPOCH":"2026-03-02T21:20:52.181376","MEAN_MOTION":14.30630258,"ECCENTRICITY":0.0113565,"INCLINATION":98.4337,"RA_OF_ASC_NODE":80.3242,"ARG_OF_PERICENTER":37.7968,"MEAN_ANOMALY":80.9073,"EPHEMERIS_TYPE":0,"CLASSIFICATION_TYPE":"U","NORAD_CAT_ID":31016,"ELEMENT_SET_NO":999,"REV_AT_EPOCH":98616,"BSTAR":0.00033561,"MEAN_MOTION_DOT":8.98e-6,"MEAN_MOTION_DDOT":0},{"OBJECT_NAME":"FENGYUN 1C DEB","OBJECT_ID":"1999-025BDK","EPOCH":"2026-03-02T10:16:08.666976","MEAN_MOTION":14.08940869,"ECCENTRICITY":0.01137446,"INCLINATION":98.6898,"RA_OF_ASC_NODE":49.6643,"ARG_OF_PERICENTER":123.6262,"MEAN_ANOMALY":29.7683,"EPHEMERIS_TYPE":0,"CLASSIFICATION_TYPE":"U","NORAD_CAT_ID":31017,"ELEMENT_SET_NO":999,"REV_AT_EPOCH":97418,"BSTAR":0.00040878794,"MEAN_MOTION_DOT":7.09e-6,"MEAN_MOTION_DDOT":0},{"OBJECT_NAME":"FENGYUN 1C DEB","OBJECT_ID":"1999-025BDL","EPOCH":"2026-03-02T17:35:29.538528","MEAN_MOTION":14.17488261,"ECCENTRICITY":0.00575036,"INCLINATION":99.018,"RA_OF_ASC_NODE":154.6833,"ARG_OF_PERICENTER":255.0589,"MEAN_ANOMALY":104.4214,"EPHEMERIS_TYPE":0,"CLASSIFICATION_TYPE":"U","NORAD_CAT_ID":31018,"ELEMENT_SET_NO":999,"REV_AT_EPOCH":97188,"BSTAR":0.0016903418,"MEAN_MOTION_DOT":3.439e-5,"MEAN_MOTION_DDOT":0},{"OBJECT_NAME":"FENGYUN 1C DEB","OBJECT_ID":"1999-025BDM","EPOCH":"2026-03-02T18:23:15.067104","MEAN_MOTION":11.83202808,"ECCENTRICITY":0.11116466,"INCLINATION":98.7128,"RA_OF_ASC_NODE":237.4658,"ARG_OF_PERICENTER":129.2737,"MEAN_ANOMALY":351.6377,"EPHEMERIS_TYPE":0,"CLASSIFICATION_TYPE":"U","NORAD_CAT_ID":31019,"ELEMENT_SET_NO":999,"REV_AT_EPOCH":56127,"BSTAR":0.0037076348,"MEAN_MOTION_DOT":1.351e-5,"MEAN_MOTION_DDOT":0},{"OBJECT_NAME":"FENGYUN 1C DEB","OBJECT_ID":"1999-025BDP","EPOCH":"2026-02-23T02:44:21.784128","MEAN_MOTION":14.76631485,"ECCENTRICITY":0.02646595,"INCLINATION":98.3475,"RA_OF_ASC_NODE":172.069,"ARG_OF_PERICENTER":11.3731,"MEAN_ANOMALY":349.33,"EPHEMERIS_TYPE":0,"CLASSIFICATION_TYPE":"U","NORAD_CAT_ID":31021,"ELEMENT_SET_NO":999,"REV_AT_EPOCH":74500,"BSTAR":0.00043940497,"MEAN_MOTION_DOT":5.426e-5,"MEAN_MOTION_DDOT":0},{"OBJECT_NAME":"FENGYUN 1C DEB","OBJECT_ID":"1999-025BDQ","EPOCH":"2026-03-02T11:03:52.573824","MEAN_MOTION":13.90552415,"ECCENTRICITY":0.01090761,"INCLINATION":99.5108,"RA_OF_ASC_NODE":311.986,"ARG_OF_PERICENTER":269.1865,"MEAN_ANOMALY":89.6794,"EPHEMERIS_TYPE":0,"CLASSIFICATION_TYPE":"U","NORAD_CAT_ID":31022,"ELEMENT_SET_NO":999,"REV_AT_EPOCH":63116,"BSTAR":0.00043929256,"MEAN_MOTION_DOT":5.26e-6,"MEAN_MOTION_DDOT":0},{"OBJECT_NAME":"FENGYUN 1C DEB","OBJECT_ID":"1999-025BDR","EPOCH":"2026-02-24T04:36:07.333920","MEAN_MOTION":14.06735466,"ECCENTRICITY":0.00828366,"INCLINATION":98.823,"RA_OF_ASC_NODE":43.7893,"ARG_OF_PERICENTER":15.9908,"MEAN_ANOMALY":344.3847,"EPHEMERIS_TYPE":0,"CLASSIFICATION_TYPE":"U","NORAD_CAT_ID":31023,"ELEMENT_SET_NO":999,"REV_AT_EPOCH":70534,"BSTAR":0.00019737256,"MEAN_MOTION_DOT":2.95e-6,"MEAN_MOTION_DDOT":0},{"OBJECT_NAME":"FENGYUN 1C DEB","OBJECT_ID":"1999-025BDS","EPOCH":"2026-03-01T13:18:41.517216","MEAN_MOTION":14.2100019,"ECCENTRICITY":0.00733335,"INCLINATION":99.042,"RA_OF_ASC_NODE":340.7282,"ARG_OF_PERICENTER":259.997,"MEAN_ANOMALY":99.2924,"EPHEMERIS_TYPE":0,"CLASSIFICATION_TYPE":"U","NORAD_CAT_ID":31024,"ELEMENT_SET_NO":999,"REV_AT_EPOCH":97823,"BSTAR":0.00030842633,"MEAN_MOTION_DOT":6.4e-6,"MEAN_MOTION_DDOT":0},{"OBJECT_NAME":"FENGYUN 1C DEB","OBJECT_ID":"1999-025BDT","EPOCH":"2026-02-28T04:36:43.324704","MEAN_MOTION":14.20808746,"ECCENTRICITY":0.01726892,"INCLINATION":98.5859,"RA_OF_ASC_NODE":52.1896,"ARG_OF_PERICENTER":147.7218,"MEAN_ANOMALY":213.4668,"EPHEMERIS_TYPE":0,"CLASSIFICATION_TYPE":"U","NORAD_CAT_ID":31025,"ELEMENT_SET_NO":999,"REV_AT_EPOCH":65465,"BSTAR":0.00036364954,"MEAN_MOTION_DOT":8.7e-6,"MEAN_MOTION_DDOT":0},{"OBJECT_NAME":"FENGYUN 1C DEB","OBJECT_ID":"1999-025BDU","EPOCH":"2026-03-02T14:26:54.195360","MEAN_MOTION":13.8344341,"ECCENTRICITY":0.0134191,"INCLINATION":98.7866,"RA_OF_ASC_NODE":356.9043,"ARG_OF_PERICENTER":327.3114,"MEAN_ANOMALY":212.8568,"EPHEMERIS_TYPE":0,"CLASSIFICATION_TYPE":"U","NORAD_CAT_ID":31026,"ELEMENT_SET_NO":999,"REV_AT_EPOCH":69130,"BSTAR":0.0002393,"MEAN_MOTION_DOT":2.41e-6,"MEAN_MOTION_DDOT":0},{"OBJECT_NAME":"FENGYUN 1C DEB","OBJECT_ID":"1999-025BDW","EPOCH":"2026-03-01T00:19:56.796384","MEAN_MOTION":13.89131427,"ECCENTRICITY":0.01661741,"INCLINATION":98.7117,"RA_OF_ASC_NODE":351.8082,"ARG_OF_PERICENTER":79.7122,"MEAN_ANOMALY":282.2727,"EPHEMERIS_TYPE":0,"CLASSIFICATION_TYPE":"U","NORAD_CAT_ID":31028,"ELEMENT_SET_NO":999,"REV_AT_EPOCH":63090,"BSTAR":0.00031220781,"MEAN_MOTION_DOT":3.85e-6,"MEAN_MOTION_DDOT":0},{"OBJECT_NAME":"FENGYUN 1C DEB","OBJECT_ID":"1999-025BDX","EPOCH":"2026-03-03T04:34:45.699744","MEAN_MOTION":14.34525381,"ECCENTRICITY":0.0088318,"INCLINATION":98.8544,"RA_OF_ASC_NODE":326.0889,"ARG_OF_PERICENTER":196.9793,"MEAN_ANOMALY":318.1788,"EPHEMERIS_TYPE":0,"CLASSIFICATION_TYPE":"U","NORAD_CAT_ID":31029,"ELEMENT_SET_NO":999,"REV_AT_EPOCH":98949,"BSTAR":0.00030772,"MEAN_MOTION_DOT":8.6e-6,"MEAN_MOTION_DDOT":0},{"OBJECT_NAME":"FENGYUN 1C DEB","OBJECT_ID":"1999-025BDY","EPOCH":"2026-03-01T17:00:55.683648","MEAN_MOTION":14.24040682,"ECCENTRICITY":0.00278244,"INCLINATION":98.7559,"RA_OF_ASC_NODE":127.3502,"ARG_OF_PERICENTER":210.5152,"MEAN_ANOMALY":276.5837,"EPHEMERIS_TYPE":0,"CLASSIFICATION_TYPE":"U","NORAD_CAT_ID":31030,"ELEMENT_SET_NO":999,"REV_AT_EPOCH":97828,"BSTAR":0.00089905944,"MEAN_MOTION_DOT":2.03e-5,"MEAN_MOTION_DDOT":0},{"OBJECT_NAME":"FENGYUN 1C DEB","OBJECT_ID":"1999-025BDZ","EPOCH":"2026-03-02T18:20:34.672416","MEAN_MOTION":14.2116246,"ECCENTRICITY":0.00279217,"INCLINATION":99.0738,"RA_OF_ASC_NODE":346.0106,"ARG_OF_PERICENTER":321.8201,"MEAN_ANOMALY":94.6913,"EPHEMERIS_TYPE":0,"CLASSIFICATION_TYPE":"U","NORAD_CAT_ID":31031,"ELEMENT_SET_NO":999,"REV_AT_EPOCH":97991,"BSTAR":0.00050804293,"MEAN_MOTION_DOT":1.062e-5,"MEAN_MOTION_DDOT":0}]
